<?xml version="1.0" encoding="UTF-8"?>
<kml xmlns="http://www.opengis.net/kml/2.2">
  <Document>
    <name>DCPC Neighborhoods</name>
    <Style id="poly-0288D1-1200-77-normal">
      <LineStyle>
        <color>ffd18802</color>
        <width>1.2</width>
      </LineStyle>
      <PolyStyle>
        <color>4dd18802</color>
        <fill>1</fill>
        <outline>1</outline>
      </PolyStyle>
    </Style>
    <Style id="poly-0288D1-1200-77-highlight">
      <LineStyle>
        <color>ffd18802</color>
        <width>1.8</width>
      </LineStyle>
      <PolyStyle>
        <color>4dd18802</color>
        <fill>1</fill>
        <outline>1</outline>
      </PolyStyle>
    </Style>
    <StyleMap id="poly-0288D1-1200-77">
      <Pair>
        <key>normal</key>
        <styleUrl>#poly-0288D1-1200-77-normal</styleUrl>
      </Pair>
      <Pair>
        <key>highlight</key>
        <styleUrl>#poly-0288D1-1200-77-highlight</styleUrl>
      </Pair>
    </StyleMap>
    <Style id="poly-0F9D58-1200-77-normal">
      <LineStyle>
        <color>ff589d0f</color>
        <width>1.2</width>
      </LineStyle>
      <PolyStyle>
        <color>4d589d0f</color>
        <fill>1</fill>
        <outline>1</outline>
      </PolyStyle>
    </Style>
    <Style id="poly-0F9D58-1200-77-highlight">
      <LineStyle>
        <color>ff589d0f</color>
        <width>1.8</width>
      </LineStyle>
      <PolyStyle>
        <color>4d589d0f</color>
        <fill>1</fill>
        <outline>1</outline>
      </PolyStyle>
    </Style>
    <StyleMap id="poly-0F9D58-1200-77">
      <Pair>
        <key>normal</key>
        <styleUrl>#poly-0F9D58-1200-77-normal</styleUrl>
      </Pair>
      <Pair>
        <key>highlight</key>
        <styleUrl>#poly-0F9D58-1200-77-highlight</styleUrl>
      </Pair>
    </StyleMap>
    <Style id="poly-7CB342-1200-77-normal">
      <LineStyle>
        <color>ff42b37c</color>
        <width>1.2</width>
      </LineStyle>
      <PolyStyle>
        <color>4d42b37c</color>
        <fill>1</fill>
        <outline>1</outline>
      </PolyStyle>
    </Style>
    <Style id="poly-7CB342-1200-77-highlight">
      <LineStyle>
        <color>ff42b37c</color>
        <width>1.8</width>
      </LineStyle>
      <PolyStyle>
        <color>4d42b37c</color>
        <fill>1</fill>
        <outline>1</outline>
      </PolyStyle>
    </Style>
    <StyleMap id="poly-7CB342-1200-77">
      <Pair>
        <key>normal</key>
        <styleUrl>#poly-7CB342-1200-77-normal</styleUrl>
      </Pair>
      <Pair>
        <key>highlight</key>
        <styleUrl>#poly-7CB342-1200-77-highlight</styleUrl>
      </Pair>
    </StyleMap>
    <Style id="poly-9FA8DA-1200-77-normal">
      <LineStyle>
        <color>ffdaa89f</color>
        <width>1.2</width>
      </LineStyle>
      <PolyStyle>
        <color>4ddaa89f</color>
        <fill>1</fill>
        <outline>1</outline>
      </PolyStyle>
    </Style>
    <Style id="poly-9FA8DA-1200-77-highlight">
      <LineStyle>
        <color>ffdaa89f</color>
        <width>1.8</width>
      </LineStyle>
      <PolyStyle>
        <color>4ddaa89f</color>
        <fill>1</fill>
        <outline>1</outline>
      </PolyStyle>
    </Style>
    <StyleMap id="poly-9FA8DA-1200-77">
      <Pair>
        <key>normal</key>
        <styleUrl>#poly-9FA8DA-1200-77-normal</styleUrl>
      </Pair>
      <Pair>
        <key>highlight</key>
        <styleUrl>#poly-9FA8DA-1200-77-highlight</styleUrl>
      </Pair>
    </StyleMap>
    <Style id="poly-F57C00-1200-77-normal">
      <LineStyle>
        <color>ff007cf5</color>
        <width>1.2</width>
      </LineStyle>
      <PolyStyle>
        <color>4d007cf5</color>
        <fill>1</fill>
        <outline>1</outline>
      </PolyStyle>
    </Style>
    <Style id="poly-F57C00-1200-77-highlight">
      <LineStyle>
        <color>ff007cf5</color>
        <width>1.8</width>
      </LineStyle>
      <PolyStyle>
        <color>4d007cf5</color>
        <fill>1</fill>
        <outline>1</outline>
      </PolyStyle>
    </Style>
    <StyleMap id="poly-F57C00-1200-77">
      <Pair>
        <key>normal</key>
        <styleUrl>#poly-F57C00-1200-77-normal</styleUrl>
      </Pair>
      <Pair>
        <key>highlight</key>
        <styleUrl>#poly-F57C00-1200-77-highlight</styleUrl>
      </Pair>
    </StyleMap>
    <Style id="poly-FF5252-1200-77-normal">
      <LineStyle>
        <color>ff5252ff</color>
        <width>1.2</width>
      </LineStyle>
      <PolyStyle>
        <color>4d5252ff</color>
        <fill>1</fill>
        <outline>1</outline>
      </PolyStyle>
    </Style>
    <Style id="poly-FF5252-1200-77-highlight">
      <LineStyle>
        <color>ff5252ff</color>
        <width>1.8</width>
      </LineStyle>
      <PolyStyle>
        <color>4d5252ff</color>
        <fill>1</fill>
        <outline>1</outline>
      </PolyStyle>
    </Style>
    <StyleMap id="poly-FF5252-1200-77">
      <Pair>
        <key>normal</key>
        <styleUrl>#poly-FF5252-1200-77-normal</styleUrl>
      </Pair>
      <Pair>
        <key>highlight</key>
        <styleUrl>#poly-FF5252-1200-77-highlight</styleUrl>
      </Pair>
    </StyleMap>
    <Style id="poly-FFCC80-1200-77-normal">
      <LineStyle>
        <color>ff80ccff</color>
        <width>1.2</width>
      </LineStyle>
      <PolyStyle>
        <color>4d80ccff</color>
        <fill>1</fill>
        <outline>1</outline>
      </PolyStyle>
    </Style>
    <Style id="poly-FFCC80-1200-77-highlight">
      <LineStyle>
        <color>ff80ccff</color>
        <width>1.8</width>
      </LineStyle>
      <PolyStyle>
        <color>4d80ccff</color>
        <fill>1</fill>
        <outline>1</outline>
      </PolyStyle>
    </Style>
    <StyleMap id="poly-FFCC80-1200-77">
      <Pair>
        <key>normal</key>
        <styleUrl>#poly-FFCC80-1200-77-normal</styleUrl>
      </Pair>
      <Pair>
        <key>highlight</key>
        <styleUrl>#poly-FFCC80-1200-77-highlight</styleUrl>
      </Pair>
    </StyleMap>
    <Style id="poly-FFEA00-1200-77-normal">
      <LineStyle>
        <color>ff00eaff</color>
        <width>1.2</width>
      </LineStyle>
      <PolyStyle>
        <color>4d00eaff</color>
        <fill>1</fill>
        <outline>1</outline>
      </PolyStyle>
    </Style>
    <Style id="poly-FFEA00-1200-77-highlight">
      <LineStyle>
        <color>ff00eaff</color>
        <width>1.8</width>
      </LineStyle>
      <PolyStyle>
        <color>4d00eaff</color>
        <fill>1</fill>
        <outline>1</outline>
      </PolyStyle>
    </Style>
    <StyleMap id="poly-FFEA00-1200-77">
      <Pair>
        <key>normal</key>
        <styleUrl>#poly-FFEA00-1200-77-normal</styleUrl>
      </Pair>
      <Pair>
        <key>highlight</key>
        <styleUrl>#poly-FFEA00-1200-77-highlight</styleUrl>
      </Pair>
    </StyleMap>
    <Placemark>
      <name>Civic Core</name>
      <description><![CDATA[description: <br>objectid: <br>cpcode: <br>cpname: <br>acreage: ]]></description>
      <styleUrl>#poly-FFEA00-1200-77</styleUrl>
      <ExtendedData>
        <Data name="description">
          <value/>
        </Data>
        <Data name="objectid">
          <value/>
        </Data>
        <Data name="cpcode">
          <value/>
        </Data>
        <Data name="cpname">
          <value/>
        </Data>
        <Data name="acreage">
          <value/>
        </Data>
      </ExtendedData>
      <Polygon>
        <outerBoundaryIs>
          <LinearRing>
            <tessellate>1</tessellate>
            <coordinates>
              -117.1647559,32.7198749,0
              -117.1647447,32.715693,0
              -117.1583664,32.7157111,0
              -117.158353,32.7146798,0
              -117.1556198,32.714691,0
              -117.1556589,32.7188881,0
              -117.1620291,32.7188418,0
              -117.1620288,32.7198952,0
              -117.163543,32.7198791,0
              -117.1638629,32.7198771,0
              -117.1647559,32.7198749,0
            </coordinates>
          </LinearRing>
        </outerBoundaryIs>
      </Polygon>
    </Placemark>
    <Placemark>
      <name>Little Italy</name>
      <description><![CDATA[description: <br>objectid: <br>cpcode: <br>cpname: <br>acreage: ]]></description>
      <styleUrl>#poly-0F9D58-1200-77</styleUrl>
      <ExtendedData>
        <Data name="description">
          <value/>
        </Data>
        <Data name="objectid">
          <value/>
        </Data>
        <Data name="cpcode">
          <value/>
        </Data>
        <Data name="cpname">
          <value/>
        </Data>
        <Data name="acreage">
          <value/>
        </Data>
      </ExtendedData>
      <Polygon>
        <outerBoundaryIs>
          <LinearRing>
            <tessellate>1</tessellate>
            <coordinates>
              -117.176758,32.7285652,0
              -117.177213,32.72835,0
              -117.177319,32.728212,0
              -117.177395,32.72767,0
              -117.178763,32.727644,0
              -117.179622,32.727534,0
              -117.180183,32.727515,0
              -117.179687,32.727247,0
              -117.178902,32.727398,0
              -117.178215,32.727456,0
              -117.177573,32.727448,0
              -117.177188,32.72741,0
              -117.176419,32.727238,0
              -117.175658,32.726938,0
              -117.175072,32.726593,0
              -117.174341,32.725945,0
              -117.173928,32.725387,0
              -117.173654,32.724814,0
              -117.173504,32.724266,0
              -117.173451,32.723529,0
              -117.1734427,32.7201891,0
              -117.173456,32.719858,0
              -117.1729599,32.7198777,0
              -117.1702835,32.719879,0
              -117.1692187,32.719897,0
              -117.1682786,32.7198722,0
              -117.1674136,32.7198654,0
              -117.1656275,32.7198597,0
              -117.1647559,32.7198749,0
              -117.1638629,32.7198675,0
              -117.163869,32.723382,0
              -117.1643693,32.7236541,0
              -117.165689,32.7249719,0
              -117.1680386,32.7275803,0
              -117.168618,32.7282843,0
              -117.17044,32.730526,0
              -117.176758,32.7285652,0
            </coordinates>
          </LinearRing>
        </outerBoundaryIs>
      </Polygon>
    </Placemark>
    <Placemark>
      <name>Cortez</name>
      <description><![CDATA[description: <br>objectid: <br>cpcode: <br>cpname: <br>acreage: ]]></description>
      <styleUrl>#poly-9FA8DA-1200-77</styleUrl>
      <ExtendedData>
        <Data name="description">
          <value/>
        </Data>
        <Data name="objectid">
          <value/>
        </Data>
        <Data name="cpcode">
          <value/>
        </Data>
        <Data name="cpname">
          <value/>
        </Data>
        <Data name="acreage">
          <value/>
        </Data>
      </ExtendedData>
      <Polygon>
        <outerBoundaryIs>
          <LinearRing>
            <tessellate>1</tessellate>
            <coordinates>
              -117.163869,32.723382,0
              -117.1638683,32.7215596,0
              -117.1638629,32.7198771,0
              -117.1629401,32.7198893,0
              -117.1620288,32.7198952,0
              -117.1620291,32.7188418,0
              -117.1611037,32.7188486,0
              -117.1601971,32.7188577,0
              -117.1592872,32.7188667,0
              -117.1583639,32.7188757,0
              -117.1574824,32.7188746,0
              -117.1565581,32.7188825,0
              -117.1556589,32.7188881,0
              -117.1547281,32.7188711,0
              -117.1547469,32.7193811,0
              -117.1545846,32.7215476,0
              -117.1545203,32.7224412,0
              -117.1545498,32.7227639,0
              -117.1546329,32.7230053,0
              -117.1548314,32.7234161,0
              -117.1552284,32.7238493,0
              -117.1553306,32.7240823,0
              -117.1560974,32.7239576,0
              -117.1568476,32.7238403,0
              -117.1576646,32.7236343,0
              -117.1581966,32.7234643,0
              -117.1588336,32.7232203,0
              -117.1593076,32.7230083,0
              -117.1603031,32.7227933,0
              -117.1611406,32.7227373,0
              -117.1616926,32.7227662,0
              -117.1620446,32.7227913,0
              -117.1625172,32.7229178,0
              -117.1629576,32.7230263,0
              -117.163869,32.723382,0
            </coordinates>
          </LinearRing>
        </outerBoundaryIs>
      </Polygon>
    </Placemark>
    <Placemark>
      <name>East Village North</name>
      <description><![CDATA[description: <br>objectid: <br>cpcode: <br>cpname: <br>acreage: ]]></description>
      <styleUrl>#poly-F57C00-1200-77</styleUrl>
      <ExtendedData>
        <Data name="description">
          <value/>
        </Data>
        <Data name="objectid">
          <value/>
        </Data>
        <Data name="cpcode">
          <value/>
        </Data>
        <Data name="cpname">
          <value/>
        </Data>
        <Data name="acreage">
          <value/>
        </Data>
      </ExtendedData>
      <Polygon>
        <outerBoundaryIs>
          <LinearRing>
            <tessellate>1</tessellate>
            <coordinates>
              -117.1553306,32.7240823,0
              -117.1552284,32.7238493,0
              -117.1548314,32.7234161,0
              -117.1546711,32.7231504,0
              -117.1545498,32.7227639,0
              -117.1545203,32.7224412,0
              -117.1546281,32.7214625,0
              -117.1547469,32.7193811,0
              -117.1547281,32.7188711,0
              -117.1556589,32.7188881,0
              -117.1556198,32.714691,0
              -117.158353,32.7146798,0
              -117.1583126,32.7115194,0
              -117.1546579,32.7115347,0
              -117.1476746,32.7115521,0
              -117.1476367,32.711563,0
              -117.147087,32.713685,0
              -117.147652,32.713683,0
              -117.147684,32.7167543,0
              -117.1477054,32.7175802,0
              -117.147733,32.718399,0
              -117.1478395,32.7190245,0
              -117.147911,32.71939,0
              -117.147776,32.719399,0
              -117.148336,32.721102,0
              -117.148449,32.721071,0
              -117.14895,32.721967,0
              -117.149181,32.722374,0
              -117.1493148,32.7225357,0
              -117.149441,32.722661,0
              -117.149747,32.723027,0
              -117.150092,32.723347,0
              -117.15046,32.723617,0
              -117.1508919,32.7238535,0
              -117.151869,32.724177,0
              -117.1523579,32.7242601,0
              -117.1529873,32.7242841,0
              -117.1553306,32.7240823,0
            </coordinates>
          </LinearRing>
        </outerBoundaryIs>
      </Polygon>
    </Placemark>
    <Placemark>
      <name>East Village South</name>
      <description><![CDATA[description: <br>objectid: <br>cpcode: <br>cpname: <br>acreage: ]]></description>
      <styleUrl>#poly-0288D1-1200-77</styleUrl>
      <ExtendedData>
        <Data name="description">
          <value/>
        </Data>
        <Data name="objectid">
          <value/>
        </Data>
        <Data name="cpcode">
          <value/>
        </Data>
        <Data name="cpname">
          <value/>
        </Data>
        <Data name="acreage">
          <value/>
        </Data>
      </ExtendedData>
      <Polygon>
        <outerBoundaryIs>
          <LinearRing>
            <tessellate>1</tessellate>
            <coordinates>
              -117.1583314,32.7115171,0
              -117.1583101,32.7083553,0
              -117.1582567,32.7054643,0
              -117.1564889,32.7042703,0
              -117.1546997,32.7030943,0
              -117.152678,32.7017903,0
              -117.150769,32.700536,0
              -117.1499918,32.701362,0
              -117.1491985,32.7021791,0
              -117.1507263,32.703241,0
              -117.1508165,32.7033461,0
              -117.1500965,32.7041365,0
              -117.1494998,32.7047418,0
              -117.1493077,32.7049487,0
              -117.1494691,32.7050984,0
              -117.1494642,32.7052345,0
              -117.1474413,32.7052305,0
              -117.1475697,32.7057094,0
              -117.1476123,32.7062514,0
              -117.1476407,32.7088724,0
              -117.1476746,32.7115521,0
              -117.1519575,32.7115479,0
              -117.1546579,32.7115347,0
              -117.1583314,32.7115171,0
            </coordinates>
          </LinearRing>
        </outerBoundaryIs>
      </Polygon>
    </Placemark>
    <Placemark>
      <name>Gaslamp</name>
      <description><![CDATA[description: <br>objectid: <br>cpcode: <br>cpname: <br>acreage: ]]></description>
      <styleUrl>#poly-FFCC80-1200-77</styleUrl>
      <ExtendedData>
        <Data name="description">
          <value/>
        </Data>
        <Data name="objectid">
          <value/>
        </Data>
        <Data name="cpcode">
          <value/>
        </Data>
        <Data name="cpname">
          <value/>
        </Data>
        <Data name="acreage">
          <value/>
        </Data>
      </ExtendedData>
      <Polygon>
        <outerBoundaryIs>
          <LinearRing>
            <tessellate>1</tessellate>
            <coordinates>
              -117.1647447,32.715693,0
              -117.1647202,32.7125562,0
              -117.1610698,32.7125719,0
              -117.1610578,32.7114942,0
              -117.1615149,32.7114898,0
              -117.1614979,32.7104998,0
              -117.1611605,32.7105026,0
              -117.1610437,32.7104226,0
              -117.1610623,32.7072473,0
              -117.1582567,32.7054643,0
              -117.1583314,32.7115171,0
              -117.158353,32.7146798,0
              -117.1583664,32.7157111,0
              -117.1647447,32.715693,0
            </coordinates>
          </LinearRing>
        </outerBoundaryIs>
      </Polygon>
    </Placemark>
    <Placemark>
      <name>Marina</name>
      <description><![CDATA[description: <br>objectid: <br>cpcode: <br>cpname: <br>acreage: ]]></description>
      <styleUrl>#poly-FF5252-1200-77</styleUrl>
      <ExtendedData>
        <Data name="description">
          <value/>
        </Data>
        <Data name="objectid">
          <value/>
        </Data>
        <Data name="cpcode">
          <value/>
        </Data>
        <Data name="cpname">
          <value/>
        </Data>
        <Data name="acreage">
          <value/>
        </Data>
      </ExtendedData>
      <Polygon>
        <outerBoundaryIs>
          <LinearRing>
            <tessellate>1</tessellate>
            <coordinates>
              -117.1735092,32.7135476,0
              -117.173534,32.712651,0
              -117.17378,32.712646,0
              -117.17424,32.712857,0
              -117.174561,32.713243,0
              -117.175863,32.712834,0
              -117.175785,32.712517,0
              -117.175835,32.712504,0
              -117.175819,32.712374,0
              -117.175722,32.712026,0
              -117.175633,32.712022,0
              -117.175566,32.711687,0
              -117.175733,32.711633,0
              -117.175774,32.71154,0
              -117.17572,32.711395,0
              -117.175625,32.711312,0
              -117.175547,32.711321,0
              -117.17376,32.712231,0
              -117.173687,32.712249,0
              -117.173452,32.712251,0
              -117.173342,32.712216,0
              -117.173268,32.712128,0
              -117.1723458,32.7099997,0
              -117.17203,32.709153,0
              -117.171413,32.708548,0
              -117.171172,32.708453,0
              -117.1702,32.708436,0
              -117.170167,32.707288,0
              -117.170087,32.707169,0
              -117.167378,32.705297,0
              -117.167071,32.705326,0
              -117.166858,32.705478,0
              -117.166787,32.705713,0
              -117.166847,32.705928,0
              -117.169083,32.707457,0
              -117.169091,32.708452,0
              -117.167339,32.708434,0
              -117.163493,32.705819,0
              -117.164675,32.704541,0
              -117.164805,32.704526,0
              -117.165701,32.705115,0
              -117.1658642,32.7051253,0
              -117.166022,32.705122,0
              -117.166129,32.705092,0
              -117.166263,32.704967,0
              -117.166318,32.704805,0
              -117.166264,32.704567,0
              -117.166071,32.704378,0
              -117.163773,32.7028,0
              -117.163581,32.702758,0
              -117.163502,32.702778,0
              -117.162605,32.703747,0
              -117.162606,32.703813,0
              -117.163559,32.704497,0
              -117.162785,32.705331,0
              -117.162434,32.705089,0
              -117.162421,32.704987,0
              -117.157893,32.701957,0
              -117.15783,32.70182,0
              -117.161249,32.700814,0
              -117.161123,32.700775,0
              -117.154755,32.696318,0
              -117.151849,32.697026,0
              -117.151744,32.697147,0
              -117.151507,32.697323,0
              -117.151279,32.697397,0
              -117.150853,32.697611,0
              -117.150721,32.697651,0
              -117.150511,32.697655,0
              -117.150553,32.697691,0
              -117.148983,32.699382,0
              -117.150769,32.700536,0
              -117.1537935,32.7025121,0
              -117.1553009,32.7035007,0
              -117.1575647,32.7049768,0
              -117.1582567,32.7054643,0
              -117.1598016,32.7065002,0
              -117.1610623,32.7072473,0
              -117.1610408,32.7083351,0
              -117.1610408,32.7092063,0
              -117.1610437,32.7104226,0
              -117.1611605,32.7105026,0
              -117.1614979,32.7104998,0
              -117.161508,32.7109257,0
              -117.1615149,32.7114898,0
              -117.1610578,32.7114942,0
              -117.1610767,32.7121171,0
              -117.1610698,32.7125719,0
              -117.1629044,32.7125359,0
              -117.1647202,32.7125562,0
              -117.1647249,32.7135888,0
              -117.1656322,32.7135966,0
              -117.1660456,32.7135824,0
              -117.1665019,32.7135502,0
              -117.16951,32.7136131,0
              -117.1716746,32.7135521,0
              -117.1735092,32.7135476,0
            </coordinates>
          </LinearRing>
        </outerBoundaryIs>
      </Polygon>
    </Placemark>
    <Placemark>
      <name>Columbia</name>
      <description><![CDATA[description: <br>objectid: <br>cpcode: <br>cpname: <br>acreage: ]]></description>
      <styleUrl>#poly-7CB342-1200-77</styleUrl>
      <ExtendedData>
        <Data name="description">
          <value/>
        </Data>
        <Data name="objectid">
          <value/>
        </Data>
        <Data name="cpcode">
          <value/>
        </Data>
        <Data name="cpname">
          <value/>
        </Data>
        <Data name="acreage">
          <value/>
        </Data>
      </ExtendedData>
      <Polygon>
        <outerBoundaryIs>
          <LinearRing>
            <tessellate>1</tessellate>
            <coordinates>
              -117.173456,32.719858,0
              -117.173444,32.717952,0
              -117.176709,32.717934,0
              -117.176697,32.716819,0
              -117.173463,32.71683,0
              -117.17348,32.715869,0
              -117.176717,32.715857,0
              -117.176714,32.715498,0
              -117.173485,32.715523,0
              -117.173498,32.714767,0
              -117.176683,32.714774,0
              -117.176676,32.714063,0
              -117.173509,32.714093,0
              -117.1735092,32.7135476,0
              -117.1712347,32.7135747,0
              -117.1700545,32.7135837,0
              -117.16951,32.7136131,0
              -117.1690942,32.7135815,0
              -117.1665019,32.7135502,0
              -117.1656322,32.7135966,0
              -117.1647249,32.7135888,0
              -117.1647552,32.7167248,0
              -117.1647559,32.7198749,0
              -117.1674136,32.7198654,0
              -117.1692187,32.719897,0
              -117.173456,32.719858,0
            </coordinates>
          </LinearRing>
        </outerBoundaryIs>
      </Polygon>
    </Placemark>
  </Document>
</kml>
